[{"OBJECT_NAME":"ORBCOMM FM04","OBJECT_ID":"1998-007C","EPOCH":"2026-03-09T14:44:15.821664","MEAN_MOTION":14.35529153,"ECCENTRICITY":0.0038795,"INCLINATION":107.9614,"RA_OF_ASC_NODE":324.5497,"ARG_OF_PERICENTER":142.9338,"MEAN_ANOMALY":217.4493,"EPHEMERIS_TYPE":0,"CLASSIFICATION_TYPE":"U","NORAD_CAT_ID":25159,"ELEMENT_SET_NO":999,"REV_AT_EPOCH":46230,"BSTAR":0.0004125,"MEAN_MOTION_DOT":1.067e-5,"MEAN_MOTION_DDOT":0},{"OBJECT_NAME":"DMSP 5D-2 F13 DEB","OBJECT_ID":"1995-015FZ","EPOCH":"2026-03-09T01:09:45.513216","MEAN_MOTION":14.36451942,"ECCENTRICITY":0.00102893,"INCLINATION":98.6418,"RA_OF_ASC_NODE":102.6303,"ARG_OF_PERICENTER":203.2855,"MEAN_ANOMALY":156.7866,"EPHEMERIS_TYPE":0,"CLASSIFICATION_TYPE":"U","NORAD_CAT_ID":42259,"ELEMENT_SET_NO":999,"REV_AT_EPOCH":54676,"BSTAR":0.001512483,"MEAN_MOTION_DOT":4.394e-5,"MEAN_MOTION_DDOT":0}]
